{
    "links": {
        "self": "http://www.neowsapp.com/rest/v1/neo/3601298?api_key=iIulBulltgU6a56xZRHN4H3l9WmuAYTsLGpBGhQ2"
    },
    "id": "3601298",
    "neo_reference_id": "3601298",
    "name": "(2012 EK8)",
    "designation": "2012 EK8",
    "nasa_jpl_url": "http://ssd.jpl.nasa.gov/sbdb.cgi?sstr=3601298",
    "absolute_magnitude_h": 23.8,
    "estimated_diameter": {
        "kilometers": {
            "estimated_diameter_min": 0.046190746,
            "estimated_diameter_max": 0.1032856481
        },
        "meters": {
            "estimated_diameter_min": 46.1907460282,
            "estimated_diameter_max": 103.2856480504
        },
        "miles": {
            "estimated_diameter_min": 0.0287015901,
            "estimated_diameter_max": 0.0641787064
        },
        "feet": {
            "estimated_diameter_min": 151.544447199,
            "estimated_diameter_max": 338.8636855496
        }
    },
    "is_potentially_hazardous_asteroid": false,
    "close_approach_data": [
        {
            "close_approach_date": "2009-05-30",
            "close_approach_date_full": "2009-May-30 02:51",
            "epoch_date_close_approach": 1243651860000,
            "relative_velocity": {
                "kilometers_per_second": "14.9834555616",
                "kilometers_per_hour": "53940.4400218464",
                "miles_per_hour": "33516.4917457967"
            },
            "miss_distance": {
                "astronomical": "0.3066007568",
                "lunar": "119.2676943952",
                "kilometers": "45866820.157668016",
                "miles": "28500320.4685539808"
            },
            "orbiting_body": "Earth"
        },
        {
            "close_approach_date": "2012-03-25",
            "close_approach_date_full": "2012-Mar-25 23:14",
            "epoch_date_close_approach": 1332717240000,
            "relative_velocity": {
                "kilometers_per_second": "9.2744839621",
                "kilometers_per_hour": "33388.1422636478",
                "miles_per_hour": "20746.093174876"
            },
            "miss_distance": {
                "astronomical": "0.0288531998",
                "lunar": "11.2238947222",
                "kilometers": "4316377.232764426",
                "miles": "2682072.4430880388"
            },
            "orbiting_body": "Earth"
        },
        {
            "close_approach_date": "2015-02-17",
            "close_approach_date_full": "2015-Feb-17 20:54",
            "epoch_date_close_approach": 1424206440000,
            "relative_velocity": {
                "kilometers_per_second": "21.6641925564",
                "kilometers_per_hour": "77991.093203112",
                "miles_per_hour": "48460.6323294559"
            },
            "miss_distance": {
                "astronomical": "0.4647597828",
                "lunar": "180.7915555092",
                "kilometers": "69527073.568542636",
                "miles": "43202120.2065589368"
            },
            "orbiting_body": "Earth"
        }
    ],
    "orbital_data": {
        "orbit_id": "16",
        "orbit_determination_date": "2017-04-06 08:50:33",
        "first_observation_date": "2012-03-14",
        "last_observation_date": "2012-04-02",
        "data_arc_in_days": 19,
        "observations_used": 174,
        "orbit_uncertainty": "7",
        "minimum_orbit_intersection": ".0287537",
        "jupiter_tisserand_invariant": "3.608",
        "epoch_osculation": "2459000.5",
        "eccentricity": ".5080979859898352",
        "semi_major_axis": "2.046314116447825",
        "inclination": "9.658420010947946",
        "ascending_node_longitude": "1.036426564272033",
        "orbital_period": "1069.194896768473",
        "perihelion_distance": "1.006586035178116",
        "perihelion_argument": "202.5949659186099",
        "aphelion_distance": "3.086042197717535",
        "perihelion_time": "2459234.487960861778",
        "mean_anomaly": "281.2157987614481",
        "mean_motion": ".3367019437597966",
        "equinox": "J2000",
        "orbit_class": {
            "orbit_class_type": "APO",
            "orbit_class_description": "Near-Earth asteroid orbits which cross the Earth’s orbit similar to that of 1862 Apollo",
            "orbit_class_range": "a (semi-major axis) > 1.0 AU; q (perihelion) < 1.017 AU"
        }
    },
    "is_sentry_object": false
}